{
  "norad_id": 49432,
  "name": "STARLINK-3158",
  "history": [
    {
      "epoch": "2026-03-28T20:13:08.947488Z",
      "apogee_km": 540.6340539418006,
      "perigee_km": 538.8590633783206,
      "latitude_deg": -3.3797832454283784e-05,
      "longitude_deg": 3.5957866960870466,
      "height_km": 540.5565135156344,
      "semi_major_axis_km": 6917.883558660061,
      "eccentricity": 0.00012829,
      "inclination_deg": 53.2166,
      "raan_deg": 133.1402,
      "arg_perigee_deg": 84.453,
      "mean_anomaly_deg": 275.6608,
      "mean_motion_rev_day": 15.08838963
    },
    {
      "epoch": "2026-03-29T02:34:41.565792Z",
      "apogee_km": 540.658275820163,
      "perigee_km": 538.8374885191761,
      "latitude_deg": 4.5722360780070885e-05,
      "longitude_deg": -93.24102112470455,
      "height_km": 540.5716108885491,
      "semi_major_axis_km": 6917.884882169669,
      "eccentricity": 0.0001316,
      "inclination_deg": 53.2166,
      "raan_deg": 131.9504,
      "arg_perigee_deg": 85.4669,
      "mean_anomaly_deg": 274.6474,
      "mean_motion_rev_day": 15.0883853
    },
    {
      "epoch": "2026-03-29T08:56:14.058816Z",
      "apogee_km": 540.6226764717767,
      "perigee_km": 538.8634595704798,
      "latitude_deg": 3.870185724344766e-05,
      "longitude_deg": 169.92293027882315,
      "height_km": 540.5837586297241,
      "semi_major_axis_km": 6917.880068021128,
      "eccentricity": 0.00012715,
      "inclination_deg": 53.2162,
      "raan_deg": 130.7609,
      "arg_perigee_deg": 86.4145,
      "mean_anomaly_deg": 273.6993,
      "mean_motion_rev_day": 15.08840105
    },
    {
      "epoch": "2026-03-30T11:57:47.061504Z",
      "apogee_km": 540.6084065912046,
      "perigee_km": 538.8518217735718,
      "latitude_deg": 5.013524739844706e-05,
      "longitude_deg": 118.36981690874076,
      "height_km": 540.5785495107804,
      "semi_major_axis_km": 6917.867114182388,
      "eccentricity": 0.00012696,
      "inclination_deg": 53.216,
      "raan_deg": 125.7052,
      "arg_perigee_deg": 86.9165,
      "mean_anomaly_deg": 273.1973,
      "mean_motion_rev_day": 15.08844343
    }
  ]
}